[
    {
        "CCSDS_OMM_VERS": "3.0",
        "COMMENT": "GENERATED VIA SPACE-TRACK.ORG API",
        "CREATION_DATE": "2025-05-03T17:28:03",
        "ORIGINATOR": "18 SPCS",
        "OBJECT_NAME": "BD-21",
        "OBJECT_ID": "2016-006A",
        "CENTER_NAME": "EARTH",
        "REF_FRAME": "TEME",
        "TIME_SYSTEM": "UTC",
        "MEAN_ELEMENT_THEORY": "SGP4",
        "EPOCH": "2025-05-03T08:03:04.048128",
        "MEAN_MOTION": "1.86231111",
        "ECCENTRICITY": "0.00048290",
        "INCLINATION": "56.3487",
        "RA_OF_ASC_NODE": "77.1697",
        "ARG_OF_PERICENTER": "295.1588",
        "MEAN_ANOMALY": "64.7605",
        "EPHEMERIS_TYPE": "0",
        "CLASSIFICATION_TYPE": "U",
        "NORAD_CAT_ID": "41315",
        "ELEMENT_SET_NO": "999",
        "REV_AT_EPOCH": "6296",
        "BSTAR": "0.00000000000000",
        "MEAN_MOTION_DOT": "-0.00000012",
        "MEAN_MOTION_DDOT": "0.0000000000000",
        "SEMIMAJOR_AXIS": "27906.177",
        "PERIOD": "773.233",
        "APOAPSIS": "21541.518",
        "PERIAPSIS": "21514.567",
        "OBJECT_TYPE": "PAYLOAD",
        "RCS_SIZE": "LARGE",
        "COUNTRY_CODE": "PRC",
        "LAUNCH_DATE": "2016-02-01",
        "SITE": "XSC",
        "DECAY_DATE": null,
        "FILE": "4717971",
        "GP_ID": "286761386",
        "TLE_LINE0": "0 BD-21",
        "TLE_LINE1": "1 41315U 16006A   25123.33546352 -.00000012  00000-0  00000-0 0  9995",
        "TLE_LINE2": "2 41315  56.3487  77.1697 0004829 295.1588  64.7605  1.86231111 62962"
    }
]